[phobos]
iau_moon_number=MI
absolute_magnitude=11.8
albedo=0.07
color=1., 0.919, 0.806
coord_func=phobos_special
model=m1phobos.obj.gz
name=Phobos
orbit_visualization_period=0.319
parent=Mars
radius=11.08
rot_equator_ascending_node=186.6
rot_obliquity=0.6
rot_periode=7.653843687
rot_rotation_offset=169.17
rot_pole_ra=317.67071657
rot_pole_ra1=-0.10844326
rot_pole_de=52.88627266
rot_pole_de1=-0.06134706
rot_pole_w0=35.18774440
rot_pole_w1=1128.84475928
roughness=4.0
tex_map=phobos.png
type=moon

[phoebe]
iau_moon_number=SIX
absolute_magnitude=6.89
albedo=0.081
color=1., 0.9, 0.75
name=Phoebe
orbit_AscendingNode=268.4267579887331
orbit_Eccentricity=0.1504421334353345
orbit_Epoch=2457939.5
orbit_Inclination=3.021321305800842
orbit_LongOfPericenter=280.42954671248409
orbit_MeanLongitude=548.76431863253849
orbit_Period=547.3005801538289
orbit_SemiMajorAxis=12903437.193454375386410067
# orbit_visualization_period=547.3005801538289
parent=Saturn
radius=106.5
rot_equator_ascending_node=0
rot_obliquity=152.14
rot_periode=9.2735
rot_rotation_offset=0
rot_pole_ra=356.90
rot_pole_de=77.8
rot_pole_w0=178.58
rot_pole_w1=931.639
tex_map=phoebe.png
type=moon

[pluto]
absolute_magnitude=-1.0
albedo=0.55
color=1.0, 0.848, 0.712
coord_func=pluto_special
name=Pluto
minor_planet_number=134340
orbit_visualization_period=90797
radius=1188.3
rot_equator_ascending_node=228.34
rot_obliquity=-115.60
rot_periode=-153.293904
rot_rotation_offset=123.46
rot_pole_ra=132.993
rot_pole_de=-6.163
rot_pole_w0=302.695
rot_pole_w1=56.3625225
tex_map=pluto.png
type=dwarf planet

[prometheus]
iau_moon_number=SXVI
absolute_magnitude=6.2
albedo=0.5
color=1., 0.9, 0.75
name=Prometheus
orbit_AscendingNode=169.5242754009331
orbit_Eccentricity=0.006767916620281549
orbit_Epoch=2457939.5
orbit_Inclination=0.4897315884144040
orbit_LongOfPericenter=465.7353499840334
orbit_MeanLongitude=819.1534067632005
orbit_Period=0.6187311441840498
orbit_SemiMajorAxis=140030.54826100046901557766
# orbit_visualization_period=0.6187311441840498
parent=Saturn
radius=43.1
rot_equator_ascending_node=0
rot_obliquity=0
# rot_periode=0.6187311441840498 # Unknown
rot_rotation_offset=0
rot_pole_ra=40.58
rot_pole_ra1=-0.036
rot_pole_de=83.53
rot_pole_de1=-0.004
rot_pole_w0=296.14
rot_pole_w1=587.289000
tex_map=lune.png
type=moon

[proteus]
iau_moon_number=NVIII
absolute_magnitude=5.6
albedo=0.096
color=1., 0.9, 0.75
name=Proteus
model=n8proteus_MLfix.obj
orbit_AscendingNode=8.601516584903857
orbit_Eccentricity=0.0002692747866371301
orbit_Epoch=2454619.50000
orbit_Inclination=1.100351508385464
orbit_LongOfPericenter=271.9733987
orbit_MeanLongitude=67.98677168
orbit_Period=1.122852570617394
orbit_SemiMajorAxis=117675.5347599977
# orbit_visualization_period=1.122852570617394
parent=Neptune
radius=208
rot_equator_ascending_node=213.7
rot_obliquity=15.5
rot_periode=26.948461694817456
rot_rotation_offset=328.42
rot_pole_ra=299.27
rot_pole_de=42.91
rot_pole_w0=93.38
rot_pole_w1=320.7654228
tex_map=proteus.png
type=moon

[psamathe]
iau_moon_number=NX
albedo=0.06
color=1., 0.9, 0.75
name=Psamathe
orbit_AscendingNode=312.6542992791928
orbit_Eccentricity=0.2226171984343604
orbit_Epoch=2454619.50000
orbit_Inclination=119.8213439712103
orbit_LongOfPericenter=122.424815
orbit_MeanLongitude=45.2205867
orbit_Period=9130.624091904599
orbit_SemiMajorAxis=47585137.76667986
# orbit_visualization_period=9130.624091904599
parent=Neptune
radius=40
rot_equator_ascending_node=213.7
rot_obliquity=15.5
# rot_periode=9130.624091904599
rot_rotation_offset=14.9
tex_map=lune.png
type=moon

[puck]
iau_moon_number=UXV
absolute_magnitude=7.5
albedo=0.07
color=1., 0.9, 0.75
name=Puck
orbit_AscendingNode=167.8922665865455
orbit_Eccentricity=0.0008253222005923797
orbit_Epoch=2458796.50000
orbit_Inclination=0.145823584148325
orbit_LongOfPericenter=257.42612413762558
orbit_MeanLongitude=606.09587884838448
orbit_Period=-0.7629777576817924
orbit_SemiMajorAxis=86077.3289145367
parent=Uranus
radius=77
rot_equator_ascending_node=0
rot_obliquity=0
rot_rotation_offset=0
rot_pole_ra=257.31
rot_pole_ra1=0
rot_pole_de=-15.18
rot_pole_de1=0
rot_pole_w0=91.24
rot_pole_w1=-472.5450690
tex_map=lune.png
type=moon

[rhea]
iau_moon_number=SV
absolute_magnitude=0.1
albedo=0.6
color=1., 0.981, 0.942
coord_func=rhea_special
name=Rhea
orbit_visualization_period=4.518
parent=Saturn
radius=763.5
rot_obliquity=0.0
rot_periode=108.4200630
rot_rotation_offset=12.78
rot_pole_ra=40.38
rot_pole_ra1=-0.036
rot_pole_de=83.55
rot_pole_de1=-0.004
rot_pole_w0=235.16
rot_pole_w1=79.6900478
tex_map=rhea.png
type=moon

[sao]
iau_moon_number=NXI
albedo=0.06
color=1., 0.9, 0.75
name=Sao
orbit_AscendingNode=47.24035407294561
orbit_Eccentricity=0.1428543008978792
orbit_Epoch=2454619.50000
orbit_Inclination=25.87467519239580
orbit_LongOfPericenter=97.97933806
orbit_MeanLongitude=131.3325862
orbit_Period=2908.415786162766
orbit_SemiMajorAxis=22194328.90318039
# orbit_visualization_period=2908.415786162766
parent=Neptune
radius=44
rot_equator_ascending_node=213.7
rot_obliquity=15.5
# rot_periode=2908.415786162766
rot_rotation_offset=14.9
tex_map=lune.png
type=moon

[saturn]
absolute_magnitude=-8.88
albedo=0.50
atmosphere=1
color=1.0, 0.955, 0.858
coord_func=saturn_special
landscape=saturn
name=Saturn
oblateness=0.09796243446
orbit_visualization_period=10760
radius=60268
ring_inner_size=74510
ring_outer_size=140390
rot_equator_ascending_node=169.5291
rot_obliquity=28.049
rot_periode=10.65622
rot_rotation_offset=358.922
rot_pole_ra=40.589
rot_pole_ra1=-0.036
rot_pole_de=83.537
rot_pole_de1=-0.004
rot_pole_w0=38.90
rot_pole_w1=810.7939024
tex_map=saturn.png #texture courtesy of Bj\xf6rn J\xf3nsson
tex_ring=saturn_rings_radial.png #texture courtesy of Bj\xf6rn J\xf3nsson
type=planet

[sinope]
iau_moon_number=JIX
absolute_magnitude=11.6
albedo=0.04
color=1., 0.9, 0.75
name=Sinope
orbit_AscendingNode=337.3608948461959
orbit_Eccentricity=0.1823445283881716
orbit_Epoch=2454619.50000
orbit_Inclination=153.0924984377859
orbit_LongOfPericenter=334.0923761708530000
orbit_MeanLongitude=187.6932736301600000
orbit_Period=778.6442493765837
orbit_SemiMajorAxis=24398256.25007371
# orbit_visualization_period=778.6442493765837
parent=Jupiter
radius=14
rot_equator_ascending_node=213.7
rot_obliquity=15.5
# rot_periode=778.6442493765837
rot_rotation_offset=14.9
tex_map=lune.png
type=moon

[sun]
absolute_magnitude=4.83
albedo=-1.
color=1.0, 0.98, 0.97
coord_func=sun_special
halo=false
name=Sun
parent=none
radius=695700.
rot_equator_ascending_node=196.13
rot_obliquity=7.25
;rot_periode=654.61
tex_map=sun.png
type=star
rot_pole_ra=286.13
rot_pole_de=63.87
rot_pole_w0=84.176
rot_pole_w1=14.1844000


[styx]
iau_moon_number=PV
albedo=0.56
name=Styx
orbit_AscendingNode=227.3514962106030
orbit_Eccentricity=0.02752939327739043
orbit_Epoch=2457939.5
orbit_Inclination=1.970282720825102
orbit_LongOfPericenter=489.4487321111029
orbit_MeanLongitude=491.321816443564161
orbit_Period=-21.12062061792411
orbit_SemiMajorAxis=43516.96054847804075659521
# orbit_visualization_period=21.12062061792411
parent=Pluto
radius=16
rot_obliquity=1.0
# chaotic
rot_periode=0
rot_rotation_offset=0.0
tex_map=lune.png
type=moon

[tethys]
iau_moon_number=SIII
absolute_magnitude=0.6
albedo=0.8
color=0.999, 1., 0.999
coord_func=tethys_special
name=Tethys
orbit_visualization_period=1.888
parent=Saturn
radius=531.0
rot_obliquity=0.0
rot_periode=45.30726146
rot_rotation_offset=149.90
rot_pole_ra=40.66
rot_pole_ra1=-0.036
rot_pole_de=83.52
rot_pole_de1=-0.004
rot_pole_w0=8.95
rot_pole_w1=190.6979085
tex_map=tethys.png
type=moon

